CCSDS_OMM_VERS = 2.0
CREATION_DATE  = 
ORIGINATOR     = 

OBJECT_NAME    = ATLAS CENTAUR R/B
OBJECT_ID      = 1972-065B
CENTER_NAME    = EARTH
REF_FRAME      = TEME
TIME_SYSTEM    = UTC
MEAN_ELEMENT_THEORY = SGP/SGP4

EPOCH          = 2026-02-23T07:14:12.992064
MEAN_MOTION    = 14.77640693
ECCENTRICITY   = .0034411
INCLINATION    = 35.0024
RA_OF_ASC_NODE = 30.0684
ARG_OF_PERICENTER = 249.4093
MEAN_ANOMALY   = 110.2915

EPHEMERIS_TYPE = 0
CLASSIFICATION_TYPE = U
NORAD_CAT_ID   = 6155
ELEMENT_SET_NO = 999
REV_AT_EPOCH   = 83913
BSTAR          = .18832E-3
MEAN_MOTION_DOT = .136E-4
MEAN_MOTION_DDOT = 0

CCSDS_OMM_VERS = 2.0
CREATION_DATE  = 
ORIGINATOR     = 

OBJECT_NAME    = SL-8 R/B
OBJECT_ID      = 1975-112B
CENTER_NAME    = EARTH
REF_FRAME      = TEME
TIME_SYSTEM    = UTC
MEAN_ELEMENT_THEORY = SGP/SGP4

EPOCH          = 2026-02-23T09:10:47.644896
MEAN_MOTION    = 14.38194734
ECCENTRICITY   = .00148173
INCLINATION    = 74.0599
RA_OF_ASC_NODE = 45.2307
ARG_OF_PERICENTER = 144.0237
MEAN_ANOMALY   = 216.1918

EPHEMERIS_TYPE = 0
CLASSIFICATION_TYPE = U
NORAD_CAT_ID   = 8459
ELEMENT_SET_NO = 999
REV_AT_EPOCH   = 62981
BSTAR          = .61345021E-4
MEAN_MOTION_DOT = .16E-5
MEAN_MOTION_DDOT = 0

CCSDS_OMM_VERS = 2.0
CREATION_DATE  = 
ORIGINATOR     = 

OBJECT_NAME    = SL-3 R/B
OBJECT_ID      = 1977-057B
CENTER_NAME    = EARTH
REF_FRAME      = TEME
TIME_SYSTEM    = UTC
MEAN_ELEMENT_THEORY = SGP/SGP4

EPOCH          = 2026-02-23T14:27:08.371008
MEAN_MOTION    = 15.45051521
ECCENTRICITY   = .0006861
INCLINATION    = 97.5756
RA_OF_ASC_NODE = 225.9091
ARG_OF_PERICENTER = 342.1494
MEAN_ANOMALY   = 17.9512

EPHEMERIS_TYPE = 0
CLASSIFICATION_TYPE = U
NORAD_CAT_ID   = 10114
ELEMENT_SET_NO = 999
REV_AT_EPOCH   = 66615
BSTAR          = .29394291E-3
MEAN_MOTION_DOT = .13807E-3
MEAN_MOTION_DDOT = 0

CCSDS_OMM_VERS = 2.0
CREATION_DATE  = 
ORIGINATOR     = 

OBJECT_NAME    = SEASAT 1
OBJECT_ID      = 1978-064A
CENTER_NAME    = EARTH
REF_FRAME      = TEME
TIME_SYSTEM    = UTC
MEAN_ELEMENT_THEORY = SGP/SGP4

EPOCH          = 2026-02-23T09:14:17.338560
MEAN_MOTION    = 14.46148188
ECCENTRICITY   = .00019445
INCLINATION    = 108.0143
RA_OF_ASC_NODE = 95.4810
ARG_OF_PERICENTER = 291.2001
MEAN_ANOMALY   = 68.8937

EPHEMERIS_TYPE = 0
CLASSIFICATION_TYPE = U
NORAD_CAT_ID   = 10967
ELEMENT_SET_NO = 999
REV_AT_EPOCH   = 50444
BSTAR          = .10203515E-3
MEAN_MOTION_DOT = .227E-5
MEAN_MOTION_DDOT = 0

CCSDS_OMM_VERS = 2.0
CREATION_DATE  = 
ORIGINATOR     = 

OBJECT_NAME    = SL-14 R/B
OBJECT_ID      = 1979-011B
CENTER_NAME    = EARTH
REF_FRAME      = TEME
TIME_SYSTEM    = UTC
MEAN_ELEMENT_THEORY = SGP/SGP4

EPOCH          = 2026-02-23T10:17:13.882560
MEAN_MOTION    = 14.91889876
ECCENTRICITY   = .00175997
INCLINATION    = 82.5232
RA_OF_ASC_NODE = 110.1052
ARG_OF_PERICENTER = 104.1874
MEAN_ANOMALY   = 256.1302

EPHEMERIS_TYPE = 0
CLASSIFICATION_TYPE = U
NORAD_CAT_ID   = 11267
ELEMENT_SET_NO = 999
REV_AT_EPOCH   = 52665
BSTAR          = .49237274E-4
MEAN_MOTION_DOT = .525E-5
MEAN_MOTION_DDOT = 0

CCSDS_OMM_VERS = 2.0
CREATION_DATE  = 
ORIGINATOR     = 

OBJECT_NAME    = SL-8 R/B
OBJECT_ID      = 1979-089B
CENTER_NAME    = EARTH
REF_FRAME      = TEME
TIME_SYSTEM    = UTC
MEAN_ELEMENT_THEORY = SGP/SGP4

EPOCH          = 2026-02-23T10:58:41.522592
MEAN_MOTION    = 14.42341203
ECCENTRICITY   = .00170274
INCLINATION    = 74.0684
RA_OF_ASC_NODE = 117.3907
ARG_OF_PERICENTER = 291.5700
MEAN_ANOMALY   = 68.3642

EPHEMERIS_TYPE = 0
CLASSIFICATION_TYPE = U
NORAD_CAT_ID   = 11574
ELEMENT_SET_NO = 999
REV_AT_EPOCH   = 43405
BSTAR          = .80072581E-4
MEAN_MOTION_DOT = .238E-5
MEAN_MOTION_DDOT = 0

CCSDS_OMM_VERS = 2.0
CREATION_DATE  = 
ORIGINATOR     = 

OBJECT_NAME    = SL-14 R/B
OBJECT_ID      = 1980-005B
CENTER_NAME    = EARTH
REF_FRAME      = TEME
TIME_SYSTEM    = UTC
MEAN_ELEMENT_THEORY = SGP/SGP4

EPOCH          = 2026-02-23T05:32:32.731296
MEAN_MOTION    = 14.90910939
ECCENTRICITY   = .00148922
INCLINATION    = 82.5168
RA_OF_ASC_NODE = 320.9488
ARG_OF_PERICENTER = 206.7519
MEAN_ANOMALY   = 153.2934

EPHEMERIS_TYPE = 0
CLASSIFICATION_TYPE = U
NORAD_CAT_ID   = 11672
ELEMENT_SET_NO = 999
REV_AT_EPOCH   = 47433
BSTAR          = .59704379E-4
MEAN_MOTION_DOT = .615E-5
MEAN_MOTION_DDOT = 0

CCSDS_OMM_VERS = 2.0
CREATION_DATE  = 
ORIGINATOR     = 

OBJECT_NAME    = SL-8 R/B
OBJECT_ID      = 1981-003B
CENTER_NAME    = EARTH
REF_FRAME      = TEME
TIME_SYSTEM    = UTC
MEAN_ELEMENT_THEORY = SGP/SGP4

EPOCH          = 2026-02-23T15:02:25.316160
MEAN_MOTION    = 15.10406856
ECCENTRICITY   = .0262683
INCLINATION    = 82.9394
RA_OF_ASC_NODE = 303.0224
ARG_OF_PERICENTER = 227.5394
MEAN_ANOMALY   = 130.3367

EPHEMERIS_TYPE = 0
CLASSIFICATION_TYPE = U
NORAD_CAT_ID   = 12139
ELEMENT_SET_NO = 999
REV_AT_EPOCH   = 31255
BSTAR          = .45088757E-3
MEAN_MOTION_DOT = .17262E-3
MEAN_MOTION_DDOT = 0

CCSDS_OMM_VERS = 2.0
CREATION_DATE  = 
ORIGINATOR     = 

OBJECT_NAME    = SL-3 R/B
OBJECT_ID      = 1981-046B
CENTER_NAME    = EARTH
REF_FRAME      = TEME
TIME_SYSTEM    = UTC
MEAN_ELEMENT_THEORY = SGP/SGP4

EPOCH          = 2026-02-23T13:42:34.711776
MEAN_MOTION    = 15.41583946
ECCENTRICITY   = .0020601
INCLINATION    = 81.2322
RA_OF_ASC_NODE = 306.6912
ARG_OF_PERICENTER = 69.2552
MEAN_ANOMALY   = 291.0895

EPHEMERIS_TYPE = 0
CLASSIFICATION_TYPE = U
NORAD_CAT_ID   = 12465
ELEMENT_SET_NO = 999
REV_AT_EPOCH   = 43625
BSTAR          = .33979432E-3
MEAN_MOTION_DOT = .1443E-3
MEAN_MOTION_DDOT = 0

CCSDS_OMM_VERS = 2.0
CREATION_DATE  = 
ORIGINATOR     = 

OBJECT_NAME    = SL-3 R/B
OBJECT_ID      = 1981-103B
CENTER_NAME    = EARTH
REF_FRAME      = TEME
TIME_SYSTEM    = UTC
MEAN_ELEMENT_THEORY = SGP/SGP4

EPOCH          = 2026-02-23T13:33:32.566464
MEAN_MOTION    = 15.21184615
ECCENTRICITY   = .00128707
INCLINATION    = 81.1568
RA_OF_ASC_NODE = 230.0005
ARG_OF_PERICENTER = 337.1425
MEAN_ANOMALY   = 22.9232

EPHEMERIS_TYPE = 0
CLASSIFICATION_TYPE = U
NORAD_CAT_ID   = 12904
ELEMENT_SET_NO = 999
REV_AT_EPOCH   = 97108
BSTAR          = .28435424E-3
MEAN_MOTION_DOT = .6377E-4
MEAN_MOTION_DDOT = 0

CCSDS_OMM_VERS = 2.0
CREATION_DATE  = 
ORIGINATOR     = 

OBJECT_NAME    = SL-3 R/B
OBJECT_ID      = 1982-013B
CENTER_NAME    = EARTH
REF_FRAME      = TEME
TIME_SYSTEM    = UTC
MEAN_ELEMENT_THEORY = SGP/SGP4

EPOCH          = 2026-02-23T13:53:49.341120
MEAN_MOTION    = 15.21847398
ECCENTRICITY   = .00219489
INCLINATION    = 81.1760
RA_OF_ASC_NODE = 177.3031
ARG_OF_PERICENTER = 225.7818
MEAN_ANOMALY   = 134.1612

EPHEMERIS_TYPE = 0
CLASSIFICATION_TYPE = U
NORAD_CAT_ID   = 13068
ELEMENT_SET_NO = 999
REV_AT_EPOCH   = 40220
BSTAR          = .22726276E-3
MEAN_MOTION_DOT = .5223E-4
MEAN_MOTION_DDOT = 0

CCSDS_OMM_VERS = 2.0
CREATION_DATE  = 
ORIGINATOR     = 

OBJECT_NAME    = SL-3 R/B
OBJECT_ID      = 1982-039B
CENTER_NAME    = EARTH
REF_FRAME      = TEME
TIME_SYSTEM    = UTC
MEAN_ELEMENT_THEORY = SGP/SGP4

EPOCH          = 2026-02-23T13:01:21.142848
MEAN_MOTION    = 15.09989948
ECCENTRICITY   = .00299964
INCLINATION    = 81.1590
RA_OF_ASC_NODE = 232.2707
ARG_OF_PERICENTER = 10.6557
MEAN_ANOMALY   = 349.5297

EPHEMERIS_TYPE = 0
CLASSIFICATION_TYPE = U
NORAD_CAT_ID   = 13154
ELEMENT_SET_NO = 999
REV_AT_EPOCH   = 37950
BSTAR          = .15354786E-3
MEAN_MOTION_DOT = .2543E-4
MEAN_MOTION_DDOT = 0

